{
"type": "FeatureCollection",
"name": "emergency_services",
"crs": { "type": "name", "properties": { "name": "urn:ogc:def:crs:OGC:1.3:CRS84" } },
"features": [
{ "type": "Feature", "properties": { "element": "node", "id": 4169518744, "addr:city": "Cotonou", "addr:country": "BJ", "addr:place": "Gbèdjromédé", "addr:postcode": "03BP3985 Cotonou", "amenity": "clinic", "healthcare": "clinic", "name": "Clinique Point E", "phone": "+22921326843", "addr:housenumber": null }, "geometry": { "type": "Point", "coordinates": [ 2.419828, 6.386948 ] } },
{ "type": "Feature", "properties": { "element": "node", "id": 4189568327, "addr:city": null, "addr:country": null, "addr:place": null, "addr:postcode": null, "amenity": "clinic", "healthcare": "clinic", "name": "Clinique La Grâce de Dieu", "phone": null, "addr:housenumber": "138" }, "geometry": { "type": "Point", "coordinates": [ 2.4254208, 6.3847806 ] } },
{ "type": "Feature", "properties": { "element": "node", "id": 5493250342, "addr:city": null, "addr:country": null, "addr:place": null, "addr:postcode": null, "amenity": "clinic", "healthcare": "clinic", "name": "ONC Arms Benin", "phone": null, "addr:housenumber": null }, "geometry": { "type": "Point", "coordinates": [ 2.4275753, 6.3926255 ] } },
{ "type": "Feature", "properties": { "element": "node", "id": 6475127587, "addr:city": null, "addr:country": null, "addr:place": null, "addr:postcode": null, "amenity": "clinic", "healthcare": "clinic", "name": "La confiance", "phone": null, "addr:housenumber": null }, "geometry": { "type": "Point", "coordinates": [ 2.4315898, 6.3808987 ] } }
]
}
