{
"type": "FeatureCollection",
"name": "commerce",
"crs": { "type": "name", "properties": { "name": "urn:ogc:def:crs:OGC:1.3:CRS84" } },
"features": [
{ "type": "Feature", "properties": { "element": "node", "id": 2483237665, "name": "Sainte Viviane", "shop": "clothes", "addr:housenumber": null, "phone": null, "name:fr": null, "opening_hours": null, "name:en": null, "email": null }, "geometry": { "type": "Point", "coordinates": [ 2.4146978, 6.3730577 ] } },
{ "type": "Feature", "properties": { "element": "node", "id": 2483237666, "name": "Tout pour la Femme", "shop": "clothes", "addr:housenumber": null, "phone": null, "name:fr": null, "opening_hours": null, "name:en": null, "email": null }, "geometry": { "type": "Point", "coordinates": [ 2.4159003, 6.3714821 ] } },
{ "type": "Feature", "properties": { "element": "node", "id": 3934001963, "name": "Nawel Folashade", "shop": "hardware", "addr:housenumber": "1231", "phone": "62310102", "name:fr": null, "opening_hours": null, "name:en": null, "email": null }, "geometry": { "type": "Point", "coordinates": [ 2.4146198, 6.3682805 ] } },
{ "type": "Feature", "properties": { "element": "node", "id": 3934001997, "name": "Full tank", "shop": "clothes", "addr:housenumber": null, "phone": null, "name:fr": null, "opening_hours": null, "name:en": null, "email": null }, "geometry": { "type": "Point", "coordinates": [ 2.4147483, 6.3685517 ] } },
{ "type": "Feature", "properties": { "element": "node", "id": 3934002057, "name": "Cica services", "shop": "clothes", "addr:housenumber": "1255", "phone": "65618080", "name:fr": null, "opening_hours": null, "name:en": null, "email": null }, "geometry": { "type": "Point", "coordinates": [ 2.4144598, 6.3681697 ] } },
{ "type": "Feature", "properties": { "element": "node", "id": 3934003316, "name": "Planet Computer", "shop": "computer", "addr:housenumber": "1207", "phone": "97479561", "name:fr": null, "opening_hours": null, "name:en": null, "email": null }, "geometry": { "type": "Point", "coordinates": [ 2.4148067, 6.3684579 ] } },
{ "type": "Feature", "properties": { "element": "node", "id": 3934003856, "name": "UVSM", "shop": "computer", "addr:housenumber": "1194", "phone": null, "name:fr": null, "opening_hours": null, "name:en": null, "email": null }, "geometry": { "type": "Point", "coordinates": [ 2.4154317, 6.3691233 ] } },
{ "type": "Feature", "properties": { "element": "node", "id": 3934004057, "name": "La noblesse oblige", "shop": "dry_cleaning", "addr:housenumber": null, "phone": "97588070", "name:fr": null, "opening_hours": null, "name:en": null, "email": null }, "geometry": { "type": "Point", "coordinates": [ 2.4149738, 6.3685874 ] } },
{ "type": "Feature", "properties": { "element": "node", "id": 3934011695, "name": "Sunmibel Fashion", "shop": "clothes", "addr:housenumber": "1262", "phone": null, "name:fr": null, "opening_hours": null, "name:en": null, "email": null }, "geometry": { "type": "Point", "coordinates": [ 2.4143174, 6.3682173 ] } },
{ "type": "Feature", "properties": { "element": "node", "id": 3934013980, "name": "Ahmed Fashion", "shop": "clothes", "addr:housenumber": "1281", "phone": "97895350", "name:fr": null, "opening_hours": null, "name:en": null, "email": null }, "geometry": { "type": "Point", "coordinates": [ 2.4142294, 6.3680005 ] } },
{ "type": "Feature", "properties": { "element": "node", "id": 3934014105, "name": "God house", "shop": "fabric", "addr:housenumber": "1270", "phone": "94400828", "name:fr": null, "opening_hours": null, "name:en": null, "email": null }, "geometry": { "type": "Point", "coordinates": [ 2.4142517, 6.3681533 ] } },
{ "type": "Feature", "properties": { "element": "node", "id": 3934014209, "name": "Victory Fashion House", "shop": "clothes", "addr:housenumber": "1263", "phone": "96737321", "name:fr": null, "opening_hours": null, "name:en": null, "email": null }, "geometry": { "type": "Point", "coordinates": [ 2.4143957, 6.3681259 ] } },
{ "type": "Feature", "properties": { "element": "node", "id": 4124717885, "name": "EST Cuccess Computer", "shop": "electronics", "addr:housenumber": null, "phone": null, "name:fr": null, "opening_hours": null, "name:en": null, "email": null }, "geometry": { "type": "Point", "coordinates": [ 2.4212265, 6.3652788 ] } },
{ "type": "Feature", "properties": { "element": "node", "id": 4176021558, "name": "Compliment", "shop": "clothes", "addr:housenumber": null, "phone": null, "name:fr": null, "opening_hours": null, "name:en": null, "email": null }, "geometry": { "type": "Point", "coordinates": [ 2.4279863, 6.3693684 ] } },
{ "type": "Feature", "properties": { "element": "node", "id": 4176023812, "name": "La Solution", "shop": "clothes", "addr:housenumber": null, "phone": null, "name:fr": null, "opening_hours": null, "name:en": null, "email": null }, "geometry": { "type": "Point", "coordinates": [ 2.4284866, 6.3687057 ] } },
{ "type": "Feature", "properties": { "element": "node", "id": 4176025463, "name": "Librairie Chrétienne CLC", "shop": "books", "addr:housenumber": null, "phone": null, "name:fr": null, "opening_hours": null, "name:en": null, "email": null }, "geometry": { "type": "Point", "coordinates": [ 2.4289236, 6.3681756 ] } },
{ "type": "Feature", "properties": { "element": "node", "id": 4176025868, "name": "Western Union", "shop": "money_lender", "addr:housenumber": null, "phone": null, "name:fr": null, "opening_hours": null, "name:en": null, "email": null }, "geometry": { "type": "Point", "coordinates": [ 2.4287447, 6.3683768 ] } },
{ "type": "Feature", "properties": { "element": "node", "id": 4176025869, "name": "Jojo Coiffure-Tresse", "shop": "hairdresser", "addr:housenumber": null, "phone": null, "name:fr": null, "opening_hours": null, "name:en": null, "email": null }, "geometry": { "type": "Point", "coordinates": [ 2.428449, 6.368735 ] } },
{ "type": "Feature", "properties": { "element": "node", "id": 4176026039, "name": "La Différence", "shop": "clothes", "addr:housenumber": null, "phone": null, "name:fr": null, "opening_hours": null, "name:en": null, "email": null }, "geometry": { "type": "Point", "coordinates": [ 2.4284124, 6.3687763 ] } },
{ "type": "Feature", "properties": { "element": "node", "id": 4176026465, "name": "Haiking International", "shop": "stationery", "addr:housenumber": null, "phone": null, "name:fr": null, "opening_hours": null, "name:en": null, "email": null }, "geometry": { "type": "Point", "coordinates": [ 2.428354, 6.3688596 ] } },
{ "type": "Feature", "properties": { "element": "node", "id": 4203252346, "name": "Le Niveau", "shop": "clothes", "addr:housenumber": null, "phone": null, "name:fr": null, "opening_hours": null, "name:en": null, "email": null }, "geometry": { "type": "Point", "coordinates": [ 2.424745, 6.37002 ] } },
{ "type": "Feature", "properties": { "element": "node", "id": 4203252347, "name": "Entreprises Mariam", "shop": "shoes", "addr:housenumber": "281", "phone": null, "name:fr": null, "opening_hours": null, "name:en": null, "email": null }, "geometry": { "type": "Point", "coordinates": [ 2.4248644, 6.369984 ] } },
{ "type": "Feature", "properties": { "element": "node", "id": 4203257604, "name": "Electro-Lustre", "shop": "hardware", "addr:housenumber": "295", "phone": null, "name:fr": null, "opening_hours": null, "name:en": null, "email": null }, "geometry": { "type": "Point", "coordinates": [ 2.4245264, 6.3700306 ] } },
{ "type": "Feature", "properties": { "element": "node", "id": 4203257605, "name": "Hag Inter Groupe", "shop": "electronics", "addr:housenumber": "291", "phone": null, "name:fr": null, "opening_hours": null, "name:en": null, "email": null }, "geometry": { "type": "Point", "coordinates": [ 2.424623, 6.3699907 ] } },
{ "type": "Feature", "properties": { "element": "node", "id": 4203257606, "name": "Rihanna", "shop": "beauty", "addr:housenumber": "291", "phone": null, "name:fr": null, "opening_hours": null, "name:en": null, "email": null }, "geometry": { "type": "Point", "coordinates": [ 2.4248234, 6.3699669 ] } },
{ "type": "Feature", "properties": { "element": "node", "id": 4351625476, "name": "Apsonic", "shop": "motorcycle", "addr:housenumber": null, "phone": null, "name:fr": null, "opening_hours": null, "name:en": null, "email": null }, "geometry": { "type": "Point", "coordinates": [ 2.4221445, 6.3764995 ] } },
{ "type": "Feature", "properties": { "element": "node", "id": 4351625596, "name": "Virgile Pressing", "shop": "dry_cleaning", "addr:housenumber": null, "phone": null, "name:fr": null, "opening_hours": null, "name:en": null, "email": null }, "geometry": { "type": "Point", "coordinates": [ 2.4243187, 6.3739152 ] } },
{ "type": "Feature", "properties": { "element": "node", "id": 4379702895, "name": "Make me chic", "shop": "clothes", "addr:housenumber": "1384", "phone": "+229 97858013", "name:fr": "Make me chic", "opening_hours": null, "name:en": null, "email": null }, "geometry": { "type": "Point", "coordinates": [ 2.4126035, 6.3693689 ] } },
{ "type": "Feature", "properties": { "element": "node", "id": 4381002790, "name": "Pressing le mérite", "shop": "laundry", "addr:housenumber": "213", "phone": "+229 96819242", "name:fr": "Pressing le mérite", "opening_hours": null, "name:en": null, "email": null }, "geometry": { "type": "Point", "coordinates": [ 2.425138, 6.3640925 ] } },
{ "type": "Feature", "properties": { "element": "node", "id": 4494669693, "name": "Technologie Mobile Store", "shop": "mobile_phone", "addr:housenumber": null, "phone": null, "name:fr": null, "opening_hours": null, "name:en": null, "email": null }, "geometry": { "type": "Point", "coordinates": [ 2.4293515, 6.366962 ] } },
{ "type": "Feature", "properties": { "element": "node", "id": 4494669695, "name": "Feu de Fam", "shop": "clothes", "addr:housenumber": null, "phone": null, "name:fr": null, "opening_hours": null, "name:en": null, "email": null }, "geometry": { "type": "Point", "coordinates": [ 2.4295493, 6.3671466 ] } },
{ "type": "Feature", "properties": { "element": "node", "id": 4494669705, "name": "Goodride Pneumatiques", "shop": "tyres", "addr:housenumber": null, "phone": null, "name:fr": null, "opening_hours": null, "name:en": null, "email": null }, "geometry": { "type": "Point", "coordinates": [ 2.4289747, 6.3666554 ] } },
{ "type": "Feature", "properties": { "element": "node", "id": 4494669717, "name": "Les louanges angéliques", "shop": "supermarket", "addr:housenumber": null, "phone": null, "name:fr": null, "opening_hours": null, "name:en": null, "email": null }, "geometry": { "type": "Point", "coordinates": [ 2.4286019, 6.3663528 ] } },
{ "type": "Feature", "properties": { "element": "node", "id": 5020753622, "name": "Supermarché ''Jadore''", "shop": "supermarket", "addr:housenumber": null, "phone": null, "name:fr": "Supermarché ''Jadore''", "opening_hours": null, "name:en": null, "email": null }, "geometry": { "type": "Point", "coordinates": [ 2.4200143, 6.3792403 ] } },
{ "type": "Feature", "properties": { "element": "node", "id": 5020754321, "name": "Pâtisserie ''Le jadore'", "shop": "confectionery", "addr:housenumber": null, "phone": null, "name:fr": "Pâtisserie ''Le jadore'", "opening_hours": null, "name:en": null, "email": null }, "geometry": { "type": "Point", "coordinates": [ 2.420049, 6.3792069 ] } },
{ "type": "Feature", "properties": { "element": "node", "id": 5026146898, "name": "Atelier mécanicien moto", "shop": "motorcycle_repair", "addr:housenumber": null, "phone": "0022997729613", "name:fr": null, "opening_hours": "Mo-Sa 07:30-19:00", "name:en": null, "email": null }, "geometry": { "type": "Point", "coordinates": [ 2.4200017, 6.3768817 ] } },
{ "type": "Feature", "properties": { "element": "node", "id": 5182204225, "name": null, "shop": "convenience", "addr:housenumber": "507", "phone": null, "name:fr": null, "opening_hours": null, "name:en": null, "email": null }, "geometry": { "type": "Point", "coordinates": [ 2.4206691, 6.3659046 ] } },
{ "type": "Feature", "properties": { "element": "node", "id": 5182205922, "name": "Ayoola", "shop": "clothes", "addr:housenumber": null, "phone": null, "name:fr": "Ayoola", "opening_hours": null, "name:en": "Ayoola", "email": null }, "geometry": { "type": "Point", "coordinates": [ 2.4206522, 6.3659298 ] } },
{ "type": "Feature", "properties": { "element": "node", "id": 5182205924, "name": null, "shop": "car_parts", "addr:housenumber": "497", "phone": null, "name:fr": null, "opening_hours": null, "name:en": null, "email": null }, "geometry": { "type": "Point", "coordinates": [ 2.4207534, 6.3658534 ] } },
{ "type": "Feature", "properties": { "element": "node", "id": 5182206321, "name": "Lino Diffusion", "shop": "clothes", "addr:housenumber": "543", "phone": null, "name:fr": "Lino Diffusion", "opening_hours": null, "name:en": "Lino Diffusion", "email": null }, "geometry": { "type": "Point", "coordinates": [ 2.4204399, 6.3661269 ] } },
{ "type": "Feature", "properties": { "element": "node", "id": 5182206322, "name": "Fatima", "shop": "clothes", "addr:housenumber": null, "phone": null, "name:fr": "Fatima", "opening_hours": null, "name:en": "Fatima", "email": null }, "geometry": { "type": "Point", "coordinates": [ 2.4205762, 6.366018 ] } },
{ "type": "Feature", "properties": { "element": "node", "id": 5182206323, "name": null, "shop": "car_parts", "addr:housenumber": null, "phone": null, "name:fr": null, "opening_hours": null, "name:en": null, "email": null }, "geometry": { "type": "Point", "coordinates": [ 2.4206118, 6.3659834 ] } },
{ "type": "Feature", "properties": { "element": "node", "id": 5188519924, "name": null, "shop": "clothes", "addr:housenumber": "502", "phone": null, "name:fr": null, "opening_hours": null, "name:en": null, "email": null }, "geometry": { "type": "Point", "coordinates": [ 2.4208027, 6.3659763 ] } },
{ "type": "Feature", "properties": { "element": "node", "id": 5320968923, "name": "Sonimex", "shop": "hardware", "addr:housenumber": null, "phone": null, "name:fr": null, "opening_hours": null, "name:en": null, "email": null }, "geometry": { "type": "Point", "coordinates": [ 2.4132994, 6.371258 ] } },
{ "type": "Feature", "properties": { "element": "node", "id": 5537882428, "name": "Agence de Transport et Voyage", "shop": "travel_agency", "addr:housenumber": null, "phone": null, "name:fr": null, "opening_hours": null, "name:en": null, "email": null }, "geometry": { "type": "Point", "coordinates": [ 2.4119498, 6.3698905 ] } },
{ "type": "Feature", "properties": { "element": "node", "id": 5649949027, "name": "Ets Mobile zone", "shop": "mobile_phone", "addr:housenumber": null, "phone": null, "name:fr": null, "opening_hours": null, "name:en": null, "email": null }, "geometry": { "type": "Point", "coordinates": [ 2.4123508, 6.3699081 ] } },
{ "type": "Feature", "properties": { "element": "node", "id": 5812895197, "name": "Au Naturel", "shop": "beauty", "addr:housenumber": null, "phone": "62024444", "name:fr": null, "opening_hours": null, "name:en": null, "email": null }, "geometry": { "type": "Point", "coordinates": [ 2.4127817, 6.3735456 ] } },
{ "type": "Feature", "properties": { "element": "node", "id": 5842538888, "name": "Oho les Lunettes", "shop": "optician", "addr:housenumber": null, "phone": null, "name:fr": null, "opening_hours": null, "name:en": null, "email": null }, "geometry": { "type": "Point", "coordinates": [ 2.4197733, 6.3632242 ] } },
{ "type": "Feature", "properties": { "element": "node", "id": 5870712432, "name": "Direction cdpa", "shop": "mall", "addr:housenumber": null, "phone": null, "name:fr": null, "opening_hours": null, "name:en": null, "email": null }, "geometry": { "type": "Point", "coordinates": [ 2.4241808, 6.3688986 ] } },
{ "type": "Feature", "properties": { "element": "node", "id": 6481172035, "name": "Pain vip", "shop": "mall", "addr:housenumber": null, "phone": null, "name:fr": null, "opening_hours": null, "name:en": null, "email": null }, "geometry": { "type": "Point", "coordinates": [ 2.4234006, 6.362744 ] } },
{ "type": "Feature", "properties": { "element": "node", "id": 6513701590, "name": "JS Logistique", "shop": "electronics", "addr:housenumber": null, "phone": "+229 68 599 035", "name:fr": null, "opening_hours": null, "name:en": null, "email": "etsjs@yahoo.fr" }, "geometry": { "type": "Point", "coordinates": [ 2.4194719, 6.3658311 ] } },
{ "type": "Feature", "properties": { "element": "node", "id": 9200003018, "name": "Padme", "shop": "pawnbroker", "addr:housenumber": null, "phone": null, "name:fr": null, "opening_hours": null, "name:en": null, "email": null }, "geometry": { "type": "Point", "coordinates": [ 2.4261525, 6.3710023 ] } }
]
}
