{
"type": "FeatureCollection",
"name": "education",
"crs": { "type": "name", "properties": { "name": "urn:ogc:def:crs:OGC:1.3:CRS84" } },
"features": [
{ "type": "Feature", "properties": { "element": "node", "id": 4381016889, "addr:housenumber": "101", "amenity": "school", "name": "Institut universitaire les cours sonou", "name:fr": "Institut universitaire les cours sonou", "addr:city": null, "addr:postcode": null, "addr:street": null, "operator": null, "denomination": null, "religion": null }, "geometry": { "type": "Point", "coordinates": [ 2.4245608, 6.364283 ] } },
{ "type": "Feature", "properties": { "element": "node", "id": 5215240878, "addr:housenumber": null, "amenity": "school", "name": "Complexe Scolaires Saint Augustin", "name:fr": null, "addr:city": null, "addr:postcode": null, "addr:street": null, "operator": null, "denomination": null, "religion": null }, "geometry": { "type": "Point", "coordinates": [ 2.4269321, 6.3656864 ] } },
{ "type": "Feature", "properties": { "element": "node", "id": 5796076905, "addr:housenumber": null, "amenity": "school", "name": "Epp Binazon", "name:fr": null, "addr:city": null, "addr:postcode": null, "addr:street": null, "operator": null, "denomination": null, "religion": null }, "geometry": { "type": "Point", "coordinates": [ 2.416103, 6.3721447 ] } },
{ "type": "Feature", "properties": { "element": "node", "id": 5796076907, "addr:housenumber": null, "amenity": "school", "name": "Complexe scolaire Nord-Sud", "name:fr": null, "addr:city": null, "addr:postcode": null, "addr:street": null, "operator": null, "denomination": null, "religion": null }, "geometry": { "type": "Point", "coordinates": [ 2.4155939, 6.3718864 ] } },
{ "type": "Feature", "properties": { "element": "node", "id": 6887554728, "addr:housenumber": null, "amenity": "school", "name": "Groupe Scolaire La Source", "name:fr": null, "addr:city": "Cotonou", "addr:postcode": "00229", "addr:street": "Rue 7.018", "operator": "Groupe Scolaire La Source", "denomination": null, "religion": null }, "geometry": { "type": "Point", "coordinates": [ 2.4231629, 6.3681646 ] } },
{ "type": "Feature", "properties": { "element": "node", "id": 8532487826, "addr:housenumber": "960", "amenity": "school", "name": "Complexe Scolaire Calin'Ours", "name:fr": null, "addr:city": null, "addr:postcode": null, "addr:street": "Rue 7.012 Rue des Missions", "operator": null, "denomination": null, "religion": null }, "geometry": { "type": "Point", "coordinates": [ 2.4215614, 6.363175 ] } },
{ "type": "Feature", "properties": { "element": "way", "id": 735362308, "addr:housenumber": null, "amenity": "school", "name": "Groupe Scolaire La Source", "name:fr": null, "addr:city": "Cotonou", "addr:postcode": "00229", "addr:street": "7.018", "operator": "Groupe Scolaire La Source", "denomination": "Groupe_Scolaire_La_Source", "religion": "laique" }, "geometry": { "type": "Polygon", "coordinates": [ [ [ 2.4234743, 6.3678314 ], [ 2.4230613, 6.3683646 ], [ 2.4229929, 6.3683086 ], [ 2.4234126, 6.3677808 ], [ 2.4234743, 6.3678314 ] ] ] } },
{ "type": "Feature", "properties": { "element": "way", "id": 797637916, "addr:housenumber": null, "amenity": "university", "name": "ISM Adonai", "name:fr": null, "addr:city": null, "addr:postcode": null, "addr:street": null, "operator": null, "denomination": null, "religion": null }, "geometry": { "type": "Polygon", "coordinates": [ [ [ 2.415098, 6.3685469 ], [ 2.4152511, 6.3686687 ], [ 2.4154746, 6.3683913 ], [ 2.4153216, 6.3682695 ], [ 2.415098, 6.3685469 ] ] ] } }
]
}
